{"fetched_at":"2026-07-11T09:24:13.896Z","source":"https://celestrak.org/NORAD/elements/gp.php?NAME=CENTAURI&FORMAT=JSON","constellation":"myriota","records":[{"OBJECT_NAME":"CENTAURI-1","OBJECT_ID":"2018-099BD","EPOCH":"2026-07-11T02:12:54.624960","CLASSIFICATION_TYPE":"U","MEAN_MOTION":15.16599243,"ECCENTRICITY":0.0012671,"INCLINATION":97.4213,"RA_OF_ASC_NODE":243.2997,"ARG_OF_PERICENTER":240.5599,"MEAN_ANOMALY":119.4371,"EPHEMERIS_TYPE":0,"NORAD_CAT_ID":43809,"ELEMENT_SET_NO":999,"REV_AT_EPOCH":41612,"BSTAR":0.00017916,"MEAN_MOTION_DOT":0.0000344,"MEAN_MOTION_DDOT":0},{"OBJECT_NAME":"CENTAURI-6","OBJECT_ID":"2024-066K","EPOCH":"2026-07-10T05:16:11.766432","CLASSIFICATION_TYPE":"U","MEAN_MOTION":15.06006491,"ECCENTRICITY":0.00014535,"INCLINATION":45.6055,"RA_OF_ASC_NODE":134.1929,"ARG_OF_PERICENTER":242.1395,"MEAN_ANOMALY":117.9342,"EPHEMERIS_TYPE":0,"NORAD_CAT_ID":59451,"ELEMENT_SET_NO":999,"REV_AT_EPOCH":12359,"BSTAR":0.00020549854,"MEAN_MOTION_DOT":0.00002797,"MEAN_MOTION_DDOT":0},{"OBJECT_NAME":"CENTAURI-7","OBJECT_ID":"2025-009DD","EPOCH":"2026-07-11T04:14:51.516960","CLASSIFICATION_TYPE":"U","MEAN_MOTION":14.97957773,"ECCENTRICITY":0.0002867,"INCLINATION":97.7099,"RA_OF_ASC_NODE":272.1475,"ARG_OF_PERICENTER":109.8299,"MEAN_ANOMALY":250.3232,"EPHEMERIS_TYPE":0,"NORAD_CAT_ID":62708,"ELEMENT_SET_NO":999,"REV_AT_EPOCH":8105,"BSTAR":0.00023744,"MEAN_MOTION_DOT":0.00002742,"MEAN_MOTION_DDOT":0},{"OBJECT_NAME":"CENTAURI-8","OBJECT_ID":"2025-009DK","EPOCH":"2026-07-10T22:31:11.744832","CLASSIFICATION_TYPE":"U","MEAN_MOTION":14.97913211,"ECCENTRICITY":0.0002642,"INCLINATION":97.7043,"RA_OF_ASC_NODE":271.7362,"ARG_OF_PERICENTER":81.3127,"MEAN_ANOMALY":278.8395,"EPHEMERIS_TYPE":0,"NORAD_CAT_ID":62714,"ELEMENT_SET_NO":999,"REV_AT_EPOCH":8103,"BSTAR":0.00012072,"MEAN_MOTION_DOT":0.00001364,"MEAN_MOTION_DDOT":0}]}
