CENTAURI-1              
1 43809U 18099BD  26192.09229890  .00003440  00000+0  17916-3 0  9997
2 43809  97.4213 243.2997 0012671 240.5599 119.4371 15.16599243416124
CENTAURI-6              
1 59451U 24066K   26191.21958063  .00002797  00000+0  20550-3 0  9994
2 59451  45.6055 134.1929 0001453 242.1395 117.9342 15.06006491123598
CENTAURI-7              
1 62708U 25009DD  26192.17698515  .00002742  00000+0  23744-3 0  9998
2 62708  97.7099 272.1475 0002867 109.8299 250.3232 14.97957773 81055
CENTAURI-8              
1 62714U 25009DK  26191.93833038  .00001364  00000+0  12072-3 0  9990
2 62714  97.7043 271.7362 0002642  81.3127 278.8395 14.97913211 81038
